[{"OBJECT_NAME":"SITRO-AIS 6 (CHIRKIN)","OBJECT_ID":"2023-091AC","EPOCH":"2026-03-09T23:26:09.745152","MEAN_MOTION":15.244139,"ECCENTRICITY":0.00142211,"INCLINATION":97.5181,"RA_OF_ASC_NODE":131.6463,"ARG_OF_PERICENTER":95.0602,"MEAN_ANOMALY":265.2259,"EPHEMERIS_TYPE":0,"CLASSIFICATION_TYPE":"U","NORAD_CAT_ID":57192,"ELEMENT_SET_NO":999,"REV_AT_EPOCH":14916,"BSTAR":0.00035317072,"MEAN_MOTION_DOT":8.613e-5,"MEAN_MOTION_DDOT":0},{"OBJECT_NAME":"STARLINK-32094","OBJECT_ID":"2024-086Q","EPOCH":"2026-03-09T09:29:56.367456","MEAN_MOTION":15.27575061,"ECCENTRICITY":8.278e-5,"INCLINATION":43.0013,"RA_OF_ASC_NODE":61.8558,"ARG_OF_PERICENTER":278.2145,"MEAN_ANOMALY":81.8613,"EPHEMERIS_TYPE":0,"CLASSIFICATION_TYPE":"U","NORAD_CAT_ID":59696,"ELEMENT_SET_NO":999,"REV_AT_EPOCH":10406,"BSTAR":-3.5418961e-5,"MEAN_MOTION_DOT":-1.236e-5,"MEAN_MOTION_DDOT":0}]
